{"fetched_at":"2026-04-21T02:26:57Z","count":1496,"tles":[{"name":"SL-14 R/B","line1":"1 17912U 87038B   26110.39937597  .00000278  00000+0  29385-4 0  9995","line2":"2 17912  82.4994 257.5023 0019945  30.8415 329.3968 14.85406063 85427","category":"Other"},{"name":"SL-16 R/B","line1":"1 19120U 88039B   26110.34179754 -.00000088  00000+0 -18939-4 0  9992","line2":"2 19120  71.0157 340.4762 0024078 275.4113  84.4265 14.19622637964296","category":"Other"},{"name":"COSMOS 1743","line1":"1 16719U 86034A   26110.51843214  .00037697  00000+0  42724-3 0  9996","line2":"2 16719  82.5320  29.8112 0007406 115.1553 245.0474 15.62182080186775","category":"Other"},{"name":"COSMOS 1953","line1":"1 19210U 88050A   26110.38305184  .00005446  00000+0  19121-3 0  9991","line2":"2 19210  82.5046 116.2841 0010064 347.5919  12.5071 15.29138938 44151","category":"Other"},{"name":"SL-14 R/B","line1":"1 18749U 88001B   26110.09772816  .00000267  00000+0  27962-4 0  9990","line2":"2 18749  82.5133 156.4243 0019630 100.8135 259.5292 14.85567170 48173","category":"Other"},{"name":"COSMOS 1844","line1":"1 17973U 87041A   26110.26306829 -.00000269  00000+0 -11440-3 0  9994","line2":"2 17973  70.8989 306.4882 0032646 316.8182  43.0379 14.14563159  9465","category":"Other"},{"name":"SL-14 R/B","line1":"1 16792U 86046B   26110.23010661  .00000320  00000+0  33921-4 0  9994","line2":"2 16792  82.4840  40.9301 0024687  90.6257 269.7788 14.85629811132576","category":"Other"},{"name":"COSMOS 1867","line1":"1 18187U 87060A   26110.49782771 -.00000028  00000+0  27195-4 0  9999","line2":"2 18187  65.0107 189.6195 0015279 280.7994  79.1370 14.31509118 25926","category":"Other"},{"name":"SL-14 R/B","line1":"1 17567U 87024B   26110.58504620  .00000333  00000+0  35003-4 0  9990","line2":"2 17567  82.5291  53.3811 0019619 119.5002 240.8174 14.86171066 94357","category":"Other"},{"name":"SL-14 R/B","line1":"1 16882U 86055B   26110.44518299  .00000293  00000+0  30915-4 0  9996","line2":"2 16882  82.5180  87.4125 0018548 189.2176 333.2104 14.85678441125561","category":"Other"},{"name":"COSMOS 1833","line1":"1 17589U 87027A   26110.41405002 -.00000262  00000+0 -11426-3 0  9998","line2":"2 17589  70.9162 238.3123 0022474 150.3375 209.9026 14.13035926 16214","category":"Other"},{"name":"AJISAI (EGS)","line1":"1 16908U 86061A   26110.56061451 -.00000086  00000+0  83075-4 0  9994","line2":"2 16908  50.0108 324.5976 0011406  34.5172  58.1572 12.44515874473216","category":"Other"},{"name":"SL-16 R/B","line1":"1 17590U 87027B   26110.47824124  .00000077  00000+0  62135-4 0  9992","line2":"2 17590  71.0031 188.4352 0003348  37.4477 322.6879 14.17168746 21260","category":"Other"},{"name":"COSMOS 1933","line1":"1 18958U 88020A   26110.31346908  .00002357  00000+0  11324-3 0  9993","line2":"2 18958  82.5155 209.7225 0005241  67.2514 292.9274 15.18353876 56545","category":"Other"},{"name":"SL-14 R/B","line1":"1 16496U 86006B   26110.58188697  .00000556  00000+0  56013-4 0  9992","line2":"2 16496  82.5288 220.3099 0077617 133.1074 227.6673 14.86884359155430","category":"Other"},{"name":"SL-3 R/B","line1":"1 19046U 88032B   26110.53168241  .00003624  00000+0  16821-3 0  9996","line2":"2 19046  97.5239  93.6641 0027682  88.3377 272.1029 15.20340614 58469","category":"Other"},{"name":"SL-14 R/B","line1":"1 18153U 87055B   26110.30157784  .00000261  00000+0  27222-4 0  9995","line2":"2 18153  82.4971 309.8088 0019379 233.5761 126.3669 14.85665149 76110","category":"Other"}]}