[{"OBJECT_NAME":"SL-14 R/B","OBJECT_ID":"1986-006B","EPOCH":"2026-04-20T13:57:55.034208","MEAN_MOTION":14.86884359,"ECCENTRICITY":0.00776178,"INCLINATION":82.5288,"RA_OF_ASC_NODE":220.3099,"ARG_OF_PERICENTER":133.1074,"MEAN_ANOMALY":227.6673,"EPHEMERIS_TYPE":0,"CLASSIFICATION_TYPE":"U","NORAD_CAT_ID":16496,"ELEMENT_SET_NO":999,"REV_AT_EPOCH":15543,"BSTAR":5.601309e-5,"MEAN_MOTION_DOT":5.56e-6,"MEAN_MOTION_DDOT":0},{"OBJECT_NAME":"COSMOS 1743","OBJECT_ID":"1986-034A","EPOCH":"2026-04-20T12:26:32.536896","MEAN_MOTION":15.6218208,"ECCENTRICITY":0.00074067,"INCLINATION":82.532,"RA_OF_ASC_NODE":29.8112,"ARG_OF_PERICENTER":115.1553,"MEAN_ANOMALY":245.0474,"EPHEMERIS_TYPE":0,"CLASSIFICATION_TYPE":"U","NORAD_CAT_ID":16719,"ELEMENT_SET_NO":999,"REV_AT_EPOCH":18677,"BSTAR":0.0004272447,"MEAN_MOTION_DOT":0.00037697,"MEAN_MOTION_DDOT":0},{"OBJECT_NAME":"SL-14 R/B","OBJECT_ID":"1986-046B","EPOCH":"2026-04-20T05:31:21.211104","MEAN_MOTION":14.85629811,"ECCENTRICITY":0.0024687,"INCLINATION":82.484,"RA_OF_ASC_NODE":40.9301,"ARG_OF_PERICENTER":90.6257,"MEAN_ANOMALY":269.7788,"EPHEMERIS_TYPE":0,"CLASSIFICATION_TYPE":"U","NORAD_CAT_ID":16792,"ELEMENT_SET_NO":999,"REV_AT_EPOCH":13257,"BSTAR":3.3921e-5,"MEAN_MOTION_DOT":3.2e-6,"MEAN_MOTION_DDOT":0},{"OBJECT_NAME":"SL-14 R/B","OBJECT_ID":"1986-055B","EPOCH":"2026-04-20T10:41:03.810336","MEAN_MOTION":14.85678441,"ECCENTRICITY":0.00185487,"INCLINATION":82.518,"RA_OF_ASC_NODE":87.4125,"ARG_OF_PERICENTER":189.2176,"MEAN_ANOMALY":333.2104,"EPHEMERIS_TYPE":0,"CLASSIFICATION_TYPE":"U","NORAD_CAT_ID":16882,"ELEMENT_SET_NO":999,"REV_AT_EPOCH":12556,"BSTAR":3.0915169e-5,"MEAN_MOTION_DOT":2.93e-6,"MEAN_MOTION_DDOT":0},{"OBJECT_NAME":"AJISAI (EGS)","OBJECT_ID":"1986-061A","EPOCH":"2026-04-20T13:27:17.093664","MEAN_MOTION":12.44515874,"ECCENTRICITY":0.00114064,"INCLINATION":50.0108,"RA_OF_ASC_NODE":324.5976,"ARG_OF_PERICENTER":34.5172,"MEAN_ANOMALY":58.1572,"EPHEMERIS_TYPE":0,"CLASSIFICATION_TYPE":"U","NORAD_CAT_ID":16908,"ELEMENT_SET_NO":999,"REV_AT_EPOCH":47321,"BSTAR":8.3075129e-5,"MEAN_MOTION_DOT":-8.6e-7,"MEAN_MOTION_DDOT":0},{"OBJECT_NAME":"SL-14 R/B","OBJECT_ID":"1987-024B","EPOCH":"2026-04-20T14:02:27.991680","MEAN_MOTION":14.86171066,"ECCENTRICITY":0.00196198,"INCLINATION":82.5291,"RA_OF_ASC_NODE":53.3811,"ARG_OF_PERICENTER":119.5002,"MEAN_ANOMALY":240.8174,"EPHEMERIS_TYPE":0,"CLASSIFICATION_TYPE":"U","NORAD_CAT_ID":17567,"ELEMENT_SET_NO":999,"REV_AT_EPOCH":9435,"BSTAR":3.500322e-5,"MEAN_MOTION_DOT":3.33e-6,"MEAN_MOTION_DDOT":0},{"OBJECT_NAME":"COSMOS 1833","OBJECT_ID":"1987-027A","EPOCH":"2026-04-20T09:56:13.921728","MEAN_MOTION":14.13035926,"ECCENTRICITY":0.0022474,"INCLINATION":70.9162,"RA_OF_ASC_NODE":238.3123,"ARG_OF_PERICENTER":150.3375,"MEAN_ANOMALY":209.9026,"EPHEMERIS_TYPE":0,"CLASSIFICATION_TYPE":"U","NORAD_CAT_ID":17589,"ELEMENT_SET_NO":999,"REV_AT_EPOCH":1621,"BSTAR":-0.00011426246,"MEAN_MOTION_DOT":-2.62e-6,"MEAN_MOTION_DDOT":0},{"OBJECT_NAME":"SL-16 R/B","OBJECT_ID":"1987-027B","EPOCH":"2026-04-20T11:28:40.043136","MEAN_MOTION":14.17168746,"ECCENTRICITY":0.00033482,"INCLINATION":71.0031,"RA_OF_ASC_NODE":188.4352,"ARG_OF_PERICENTER":37.4477,"MEAN_ANOMALY":322.6879,"EPHEMERIS_TYPE":0,"CLASSIFICATION_TYPE":"U","NORAD_CAT_ID":17590,"ELEMENT_SET_NO":999,"REV_AT_EPOCH":2126,"BSTAR":6.2134522e-5,"MEAN_MOTION_DOT":7.7e-7,"MEAN_MOTION_DDOT":0},{"OBJECT_NAME":"SL-14 R/B","OBJECT_ID":"1987-038B","EPOCH":"2026-04-20T09:35:06.083808","MEAN_MOTION":14.85406063,"ECCENTRICITY":0.00199452,"INCLINATION":82.4994,"RA_OF_ASC_NODE":257.5023,"ARG_OF_PERICENTER":30.8415,"MEAN_ANOMALY":329.3968,"EPHEMERIS_TYPE":0,"CLASSIFICATION_TYPE":"U","NORAD_CAT_ID":17912,"ELEMENT_SET_NO":999,"REV_AT_EPOCH":8542,"BSTAR":2.9384783e-5,"MEAN_MOTION_DOT":2.78e-6,"MEAN_MOTION_DDOT":0},{"OBJECT_NAME":"COSMOS 1844","OBJECT_ID":"1987-041A","EPOCH":"2026-04-20T06:18:49.100256","MEAN_MOTION":14.14563159,"ECCENTRICITY":0.0032646,"INCLINATION":70.8989,"RA_OF_ASC_NODE":306.4882,"ARG_OF_PERICENTER":316.8182,"MEAN_ANOMALY":43.0379,"EPHEMERIS_TYPE":0,"CLASSIFICATION_TYPE":"U","NORAD_CAT_ID":17973,"ELEMENT_SET_NO":999,"REV_AT_EPOCH":946,"BSTAR":-0.0001144,"MEAN_MOTION_DOT":-2.69e-6,"MEAN_MOTION_DDOT":0},{"OBJECT_NAME":"SL-14 R/B","OBJECT_ID":"1987-055B","EPOCH":"2026-04-20T07:14:16.325376","MEAN_MOTION":14.85665149,"ECCENTRICITY":0.00193795,"INCLINATION":82.4971,"RA_OF_ASC_NODE":309.8088,"ARG_OF_PERICENTER":233.5761,"MEAN_ANOMALY":126.3669,"EPHEMERIS_TYPE":0,"CLASSIFICATION_TYPE":"U","NORAD_CAT_ID":18153,"ELEMENT_SET_NO":999,"REV_AT_EPOCH":7611,"BSTAR":2.7221748e-5,"MEAN_MOTION_DOT":2.61e-6,"MEAN_MOTION_DDOT":0},{"OBJECT_NAME":"COSMOS 1867","OBJECT_ID":"1987-060A","EPOCH":"2026-04-20T11:56:52.314144","MEAN_MOTION":14.31509118,"ECCENTRICITY":0.00152799,"INCLINATION":65.0107,"RA_OF_ASC_NODE":189.6195,"ARG_OF_PERICENTER":280.7994,"MEAN_ANOMALY":79.137,"EPHEMERIS_TYPE":0,"CLASSIFICATION_TYPE":"U","NORAD_CAT_ID":18187,"ELEMENT_SET_NO":999,"REV_AT_EPOCH":2592,"BSTAR":2.7194882e-5,"MEAN_MOTION_DOT":-2.8e-7,"MEAN_MOTION_DDOT":0},{"OBJECT_NAME":"SL-14 R/B","OBJECT_ID":"1988-001B","EPOCH":"2026-04-20T02:20:43.713024","MEAN_MOTION":14.8556717,"ECCENTRICITY":0.00196303,"INCLINATION":82.5133,"RA_OF_ASC_NODE":156.4243,"ARG_OF_PERICENTER":100.8135,"MEAN_ANOMALY":259.5292,"EPHEMERIS_TYPE":0,"CLASSIFICATION_TYPE":"U","NORAD_CAT_ID":18749,"ELEMENT_SET_NO":999,"REV_AT_EPOCH":4817,"BSTAR":2.7962388e-5,"MEAN_MOTION_DOT":2.67e-6,"MEAN_MOTION_DDOT":0},{"OBJECT_NAME":"COSMOS 1933","OBJECT_ID":"1988-020A","EPOCH":"2026-04-20T07:31:23.728512","MEAN_MOTION":15.18353876,"ECCENTRICITY":0.00052416,"INCLINATION":82.5155,"RA_OF_ASC_NODE":209.7225,"ARG_OF_PERICENTER":67.2514,"MEAN_ANOMALY":292.9274,"EPHEMERIS_TYPE":0,"CLASSIFICATION_TYPE":"U","NORAD_CAT_ID":18958,"ELEMENT_SET_NO":999,"REV_AT_EPOCH":5654,"BSTAR":0.00011324494,"MEAN_MOTION_DOT":2.357e-5,"MEAN_MOTION_DDOT":0},{"OBJECT_NAME":"SL-3 R/B","OBJECT_ID":"1988-032B","EPOCH":"2026-04-20T12:45:37.360224","MEAN_MOTION":15.20340614,"ECCENTRICITY":0.00276825,"INCLINATION":97.5239,"RA_OF_ASC_NODE":93.6641,"ARG_OF_PERICENTER":88.3377,"MEAN_ANOMALY":272.1029,"EPHEMERIS_TYPE":0,"CLASSIFICATION_TYPE":"U","NORAD_CAT_ID":19046,"ELEMENT_SET_NO":999,"REV_AT_EPOCH":5846,"BSTAR":0.00016821485,"MEAN_MOTION_DOT":3.624e-5,"MEAN_MOTION_DDOT":0},{"OBJECT_NAME":"SL-16 R/B","OBJECT_ID":"1988-039B","EPOCH":"2026-04-20T08:12:11.307456","MEAN_MOTION":14.19622637,"ECCENTRICITY":0.00240781,"INCLINATION":71.0157,"RA_OF_ASC_NODE":340.4762,"ARG_OF_PERICENTER":275.4113,"MEAN_ANOMALY":84.4265,"EPHEMERIS_TYPE":0,"CLASSIFICATION_TYPE":"U","NORAD_CAT_ID":19120,"ELEMENT_SET_NO":999,"REV_AT_EPOCH":96429,"BSTAR":-1.8938531e-5,"MEAN_MOTION_DOT":-8.8e-7,"MEAN_MOTION_DDOT":0},{"OBJECT_NAME":"COSMOS 1953","OBJECT_ID":"1988-050A","EPOCH":"2026-04-20T09:11:35.678976","MEAN_MOTION":15.29138938,"ECCENTRICITY":0.00100645,"INCLINATION":82.5046,"RA_OF_ASC_NODE":116.2841,"ARG_OF_PERICENTER":347.5919,"MEAN_ANOMALY":12.5071,"EPHEMERIS_TYPE":0,"CLASSIFICATION_TYPE":"U","NORAD_CAT_ID":19210,"ELEMENT_SET_NO":999,"REV_AT_EPOCH":4415,"BSTAR":0.00019120961,"MEAN_MOTION_DOT":5.446e-5,"MEAN_MOTION_DDOT":0}]
